#dP2023  6 12  6  0  0.00000000      96 __u+U ITR00 EXT  IAC
## 2266 108000.00000000   900.00000000 60107 0.2500000000000
+  119   C06C07C08C09C10C11C12C13C14C16C19C20C21C22C23C24C25
+        C26C27C28C29C30C32C33C34C35C36C37C38C39C40C41C42C43
+        C44C45C46E02E03E04E05E07E08E09E10E11E12E13E14E15E18
+        E19E21E24E25E26E27E30E31E33E34E36G01G02G03G04G05G06
+        G07G08G09G10G11G12G13G14G15G16G17G18G19G20G21G22G23
+        G24G25G26G27G28G29G30G31G32J02J03J04R01R02R03R04R05
+        R07R08R09R11R12R13R14R15R16R17R18R19R20R21R22R24R25
++        10  9  8  9 10 10  8 10  8 10  8  7  8  8  8  7  7
++         7  8  7  8  7  9  8  8  9  8  8 10  9 10  9  8  7
++         7  9 11  6  8  7  7  8  7  7  8  7  8  7  7  7  7
++         9  7  7  7  8  7  7  7  7  7  7  7  8  8  8  8  8
++         7  7  7  7  7  8  7  7  7  8  5  8  7  7  6  7  7
++         7  8  7  7  8  7  7  8  8 10  8 10  8  7  7  8  7
++         7  7  8  7  8  8  7  8  8  8  7  8  7  8  8  8  8
%c M  cc GPS ccc cccc cccc cccc cccc ccccc ccccc ccccc ccccc
%c cc cc ccc ccc cccc cccc cccc cccc ccccc ccccc ccccc ccccc
%f  0.0000000  0.000000000  0.00000000000  0.000000000000000
%f  0.0000000  0.000000000  0.00000000000  0.000000000000000
%i    0    0    0    0      0      0      0      0         0
%i    0    0    0    0      0      0      0      0         0
/* IAC                                ULTRA-RAPID PREDICTION
/* S/V CLOCKS ARE ALIGNED TO GNSS TIME                      
/* G:C1WC2W R:C1PC2P E:C1XC5X C:C2IC6I J:C1CC2S             
/* PCV:IGS20_2247 OL/AL:FES2004  NONE     YN ORB:CoN CLK:CoN
*  2023 06 12 22 15  0.00000000
PC06 -15477.516472  38525.741035   6401.977599   -178.997245
PC07  -2173.946060  32874.815252  26468.656759   -163.085885
PC08 -12848.569340  20290.894290 -34711.792386    461.051594
PC09  -8571.015020  37638.965440  16676.427584    541.738986
PC10   5239.894357  35862.573408  22276.030597    -84.285262
PC11     10.467374  25508.209553 -11284.526181    670.810052
PC12 -11726.295496  24451.041396   6640.427388    708.214791
PC13  -4026.967778  22137.355659 -35542.216123    294.968442
PC14  11250.043018  22649.763619 -11851.496602    400.636677
PC16 -16642.367383  38320.690808   4621.655972     45.313381
PC19 -18077.303429 -21015.935545   3092.284499   -922.366451
PC20  -4074.162548 -21134.585088  17753.652069    507.164394
PC21 -13536.711868   8472.902358 -22865.659475   -922.886313
PC22 -22370.405422  -8752.325379 -14174.206590   -443.824117
PC23  26009.231651    629.437462  10104.965898   -955.980500
PC24  -8578.774817  17313.637991  20135.523949     55.317951
PC25  13624.178243  11924.150020  21224.830212    146.083489
PC26 -23469.016289  12833.028611   8000.453534   -133.869381
PC27  15279.651763 -18855.221847 -13808.320565    154.251686
PC28  16520.800724   -948.184167 -22470.285904    114.546899
PC29  -8330.100037 -19545.600751  18081.797657    133.211160
PC30   4997.429534 -27380.143609   2156.261552     -1.138200
PC32  13587.437804  -8489.204888  22866.186819   -549.661252
PC33  18195.286282  20940.971216  -3141.027108   -894.425813
PC34  -4080.940236  27376.404251  -3488.585419    191.750712
PC35 -16444.855855    815.488486  22511.788411    609.126541
PC36 -12602.900259 -12598.317159 -21449.032902   -386.798720
PC37  24321.228328 -11722.575949  -7002.174752   -785.443897
PC38 -20679.656960  21410.699925 -29900.493178     84.700191
PC39 -17575.431823  38190.420143   -887.827030     -3.282843
PC40  -4931.597651  29288.372228  30026.000155    -26.055611
PC41  22552.884513   9229.533072  13665.939029   -922.619995
PC42   2870.014856  20669.254796 -18499.174667   -652.025860
PC43   7873.731860  20235.836488 -17532.102554     25.899097
PC44 -14685.542459  19229.362012  13860.795973    136.218915
PC45 -26177.589109   -234.747352  -9688.412194   -109.576171
PC46   6933.449731 -17198.574904 -20840.587284    -61.067347
PE02  28630.644813   4779.347930  -5772.042750     43.694614
PE03  17710.523936   3323.519849  23488.747627    -25.774028
PE04 -10952.739292  17819.499852 -20934.077769   -143.423218
PE05  14185.310345  22897.794513  12288.912737    -58.567281
PE07  -2177.284548 -28840.148834   6278.096861    -52.202072
PE08  11009.466062 -17478.136118  21201.163840    -98.021596
PE09   2164.751882  28818.930204  -6434.369256    -47.979927
PE10 -16004.702285  23166.009998  -9150.001242   -540.753932
PE11  -7099.787007  22496.342953 -17888.173628   2203.825531
PE12 -21695.773241  20120.721915    194.658409   -577.289991
PE13   7831.229810 -22660.684755  17359.777974    -19.255982
PE14  20328.880838  10425.043752 -22363.355949    252.344474
PE15  21827.203321 -19991.452616   -569.701645    -28.999625
PE18 -15548.545425   3538.274454  18901.130951    174.789706
PE19 -17712.100473  -6394.945126 -22824.633843  -2313.795085
PE21 -22335.932299 -15390.679210 -11845.982181   -534.635943
PE24   1864.678138  17665.109644  23662.858618   -151.583278
PE25  22083.922775  15528.112640  12145.902140   -606.649864
PE26 -11322.429684 -11551.098566  24785.809838    132.300773
PE27  -2757.411378 -17741.839684 -23530.211525    -73.150295
PE30  18736.503429  -9279.973347 -20957.046899   -250.465673
PE31 -18237.326617   9626.162118  21241.634264   -525.758211
PE33 -22818.897017   5540.380956  18011.241455   -443.238776
PE34  22862.003586  -5701.926137 -17924.858496    -50.487685
PE36  10579.436789  12024.393929 -24898.444052    -70.344655
PG01 -11303.512882  20377.915393 -12745.145688    178.785910
PG02 -15044.494281  20915.060306  -5625.889971   -586.365551
PG03  -1884.749955  14975.902166 -21999.066898   -272.586370
PG04  -1028.483585  25482.544865  -7189.881201     66.654000
PG05  18518.107704  -7158.439850  17522.388731   -130.870084
PG06  18662.376605    408.141707 -18875.034878    585.326742
PG07   3942.206560  16354.728271  20912.772441    153.929555
PG08  -8182.187159  18382.792134  17059.315307   -127.093791
PG09   7225.883887  25418.236548   2353.931370   -137.203047
PG10 -23768.230287 -11406.637799   4582.542523    -40.900504
PG11  22791.263483 -11549.529796  -7170.805686   -233.113982
PG12   6256.141016 -13898.157691 -22028.185455   -387.820003
PG13  13174.368747 -10994.767227  20035.830073    533.152431
PG14  21821.592688  13618.144770   6954.277381     88.590120
PG15   5721.665932 -19886.715408  16044.961646     48.287910
PG16 -21661.101912   1886.162249  15249.574181   -492.091588
PG17  13036.449105  16324.359123 -15912.026132    718.151515
PG18  -6062.914759 -14111.552661  21648.804459   -305.122572
PG19  14826.277078   8513.051276 -20629.216579    329.749716
PG20  24338.736767  -3193.059288   9930.376577    428.351118
PG21 -16666.683898  19816.874256  -2605.358174    153.151700
PG22 -15144.021568  -4618.905613 -20897.858450    496.885387
PG23 -15522.269448 -15550.903932  15037.585046     32.609248
PG24  12893.640930 -21723.266095  -7829.974445   -222.694879
PG25  -7601.239722 -16991.098489 -19356.973128    449.384157
PG26 -26111.226913  -3769.751860   4272.323442    239.169227
PG27 -13703.589686   6794.831528  21418.321976     17.752832
PG28 -17851.976473  -2055.864211 -19578.590679     83.056019
PG29  -3338.458224 -26294.626176    413.083929   -602.590695
PG30  13539.068881   8966.885904  21162.983914   -511.425955
PG31 -22746.600807   8080.574395 -11719.248435   -218.041386
PG32 -15039.662356 -13427.013954 -17210.546830   -498.808244
PJ02 -28597.482754  21426.155930  27434.163297     -0.494026
PJ03 -32059.695111  26744.199632  10666.851078      6.363470
PJ04 -23149.299942  21957.327070 -22420.540002     95.333293
PR01 -12072.828251 -21609.013546   6132.924835     59.320276
PR02 -16848.026724 -14920.059497 -12021.254903    -22.700971
PR03 -12225.402022    807.941710 -22331.992678     79.565733
PR04   -801.266740  15557.242321 -20163.857592    190.962611
PR05  10857.562662  21979.546772  -6997.297212    114.078415
PR07  11751.428195  -1713.624250  22611.968442     57.912057
PR08    679.146059 -15775.942359  20103.626469    -71.231937
PR09  22611.276249   3290.387738  11445.082570    125.473320
PR11  13519.993796 -10316.572352 -19005.922690    -78.098699
PR12  -7293.972328 -10073.155112 -22244.252300     28.098643
PR13 -21416.254070  -4293.759623 -13183.616962    -36.026024
PR14 -24346.465157   4997.527843   5704.173242     24.787365
PR15 -12347.654190  10535.274328  19697.051302     88.657782
PR16   7027.792357   9959.811874  22425.019323     15.576829
PR17 -14607.809812  13086.046724  16334.852739    638.469918
PR18 -11758.179837  22581.558999   1081.278795     86.292001
PR19  -4350.506966  21096.224145 -13674.054611   -236.054599
PR20   8851.624957   5408.925628 -23302.074018    -94.600403
PR21  14681.914904 -14127.748114 -15335.657793    -14.753260
PR22  12131.353240 -22447.000580    -56.404677     80.514649
PR24  -9768.961662  -4710.065382  23096.941599    -11.486961
PR25  15356.398052 -12153.925868 -16332.427198     59.677863
EOF
